[{"OBJECT_NAME":"HELIOS 1B","OBJECT_ID":"1999-064A","EPOCH":"2026-03-24T10:38:17.066976","MEAN_MOTION":14.87753327,"ECCENTRICITY":0.0002022,"INCLINATION":98.1679,"RA_OF_ASC_NODE":346.1191,"ARG_OF_PERICENTER":54.8214,"MEAN_ANOMALY":305.3191,"EPHEMERIS_TYPE":0,"CLASSIFICATION_TYPE":"U","NORAD_CAT_ID":25977,"ELEMENT_SET_NO":999,"REV_AT_EPOCH":68745,"BSTAR":0.00019765,"MEAN_MOTION_DOT":1.744e-5,"MEAN_MOTION_DDOT":0},{"OBJECT_NAME":"TERRA","OBJECT_ID":"1999-068A","EPOCH":"2026-03-24T12:30:20.950848","MEAN_MOTION":14.61029831,"ECCENTRICITY":0.0003451,"INCLINATION":97.9562,"RA_OF_ASC_NODE":136.387,"ARG_OF_PERICENTER":120.2031,"MEAN_ANOMALY":8.3602,"EPHEMERIS_TYPE":0,"CLASSIFICATION_TYPE":"U","NORAD_CAT_ID":25994,"ELEMENT_SET_NO":999,"REV_AT_EPOCH":39724,"BSTAR":0.00010086,"MEAN_MOTION_DOT":4.51e-6,"MEAN_MOTION_DDOT":0},{"OBJECT_NAME":"SL-16 R/B","OBJECT_ID":"2000-006B","EPOCH":"2026-03-24T08:30:46.587168","MEAN_MOTION":14.15824468,"ECCENTRICITY":0.0015997,"INCLINATION":71.001,"RA_OF_ASC_NODE":66.9985,"ARG_OF_PERICENTER":167.0241,"MEAN_ANOMALY":193.1297,"EPHEMERIS_TYPE":0,"CLASSIFICATION_TYPE":"U","NORAD_CAT_ID":26070,"ELEMENT_SET_NO":999,"REV_AT_EPOCH":35063,"BSTAR":0.00011597,"MEAN_MOTION_DOT":1.81e-6,"MEAN_MOTION_DDOT":0},{"OBJECT_NAME":"TITAN 4B R/B","OBJECT_ID":"2000-047B","EPOCH":"2026-03-24T11:18:46.390464","MEAN_MOTION":15.0969995,"ECCENTRICITY":0.0039674,"INCLINATION":67.9913,"RA_OF_ASC_NODE":358.9421,"ARG_OF_PERICENTER":18.1153,"MEAN_ANOMALY":342.1399,"EPHEMERIS_TYPE":0,"CLASSIFICATION_TYPE":"U","NORAD_CAT_ID":26474,"ELEMENT_SET_NO":999,"REV_AT_EPOCH":39514,"BSTAR":0.00025582,"MEAN_MOTION_DOT":4.073e-5,"MEAN_MOTION_DDOT":0},{"OBJECT_NAME":"ENVISAT","OBJECT_ID":"2002-009A","EPOCH":"2026-03-24T10:21:40.510368","MEAN_MOTION":14.39041818,"ECCENTRICITY":0.0001246,"INCLINATION":98.3753,"RA_OF_ASC_NODE":36.6802,"ARG_OF_PERICENTER":81.3434,"MEAN_ANOMALY":29.4205,"EPHEMERIS_TYPE":0,"CLASSIFICATION_TYPE":"U","NORAD_CAT_ID":27386,"ELEMENT_SET_NO":999,"REV_AT_EPOCH":26129,"BSTAR":5.2951e-5,"MEAN_MOTION_DOT":1.21e-6,"MEAN_MOTION_DDOT":0},{"OBJECT_NAME":"IDEFIX & ARIANE 42P R/B","OBJECT_ID":"2002-021B","EPOCH":"2026-03-24T12:41:11.307840","MEAN_MOTION":14.3103566,"ECCENTRICITY":0.0012422,"INCLINATION":98.5887,"RA_OF_ASC_NODE":21.9589,"ARG_OF_PERICENTER":139.3077,"MEAN_ANOMALY":220.9037,"EPHEMERIS_TYPE":0,"CLASSIFICATION_TYPE":"U","NORAD_CAT_ID":27422,"ELEMENT_SET_NO":999,"REV_AT_EPOCH":24614,"BSTAR":0.00011749,"MEAN_MOTION_DOT":2.66e-6,"MEAN_MOTION_DDOT":0},{"OBJECT_NAME":"AQUA","OBJECT_ID":"2002-022A","EPOCH":"2026-03-24T12:53:15.033984","MEAN_MOTION":14.62009563,"ECCENTRICITY":9.59e-5,"INCLINATION":98.4199,"RA_OF_ASC_NODE":51.1751,"ARG_OF_PERICENTER":116.9139,"MEAN_ANOMALY":308.9932,"EPHEMERIS_TYPE":0,"CLASSIFICATION_TYPE":"U","NORAD_CAT_ID":27424,"ELEMENT_SET_NO":999,"REV_AT_EPOCH":27090,"BSTAR":0.00020774,"MEAN_MOTION_DOT":9.92e-6,"MEAN_MOTION_DDOT":0},{"OBJECT_NAME":"CZ-4B R/B","OBJECT_ID":"2002-024C","EPOCH":"2026-03-24T10:07:02.619840","MEAN_MOTION":14.14550142,"ECCENTRICITY":0.0049723,"INCLINATION":98.8807,"RA_OF_ASC_NODE":136.752,"ARG_OF_PERICENTER":342.3709,"MEAN_ANOMALY":28.0322,"EPHEMERIS_TYPE":0,"CLASSIFICATION_TYPE":"U","NORAD_CAT_ID":27432,"ELEMENT_SET_NO":999,"REV_AT_EPOCH":23132,"BSTAR":3.8012e-5,"MEAN_MOTION_DOT":2.9e-7,"MEAN_MOTION_DDOT":0},{"OBJECT_NAME":"MIDORI II (ADEOS-II)","OBJECT_ID":"2002-056A","EPOCH":"2026-03-24T08:45:04.610016","MEAN_MOTION":14.29295687,"ECCENTRICITY":9.73e-5,"INCLINATION":98.7794,"RA_OF_ASC_NODE":41.9459,"ARG_OF_PERICENTER":26.4579,"MEAN_ANOMALY":333.6651,"EPHEMERIS_TYPE":0,"CLASSIFICATION_TYPE":"U","NORAD_CAT_ID":27597,"ELEMENT_SET_NO":999,"REV_AT_EPOCH":21239,"BSTAR":0.00014061,"MEAN_MOTION_DOT":3.12e-6,"MEAN_MOTION_DDOT":0},{"OBJECT_NAME":"H-2A R/B","OBJECT_ID":"2002-056E","EPOCH":"2026-03-24T10:36:35.007840","MEAN_MOTION":14.3376999,"ECCENTRICITY":0.007124,"INCLINATION":98.3228,"RA_OF_ASC_NODE":43.2483,"ARG_OF_PERICENTER":117.1498,"MEAN_ANOMALY":354.2662,"EPHEMERIS_TYPE":0,"CLASSIFICATION_TYPE":"U","NORAD_CAT_ID":27601,"ELEMENT_SET_NO":999,"REV_AT_EPOCH":21622,"BSTAR":0.0001152,"MEAN_MOTION_DOT":2.88e-6,"MEAN_MOTION_DDOT":0},{"OBJECT_NAME":"CZ-4B R/B","OBJECT_ID":"2003-049C","EPOCH":"2026-03-24T10:38:49.759008","MEAN_MOTION":14.55032999,"ECCENTRICITY":0.0048011,"INCLINATION":98.6892,"RA_OF_ASC_NODE":78.9289,"ARG_OF_PERICENTER":185.3231,"MEAN_ANOMALY":174.7461,"EPHEMERIS_TYPE":0,"CLASSIFICATION_TYPE":"U","NORAD_CAT_ID":28059,"ELEMENT_SET_NO":999,"REV_AT_EPOCH":18874,"BSTAR":9.4636e-5,"MEAN_MOTION_DOT":3.62e-6,"MEAN_MOTION_DDOT":0},{"OBJECT_NAME":"CZ-2C R/B","OBJECT_ID":"2004-012C","EPOCH":"2026-03-24T10:32:52.010304","MEAN_MOTION":15.66289055,"ECCENTRICITY":0.0012999,"INCLINATION":97.7187,"RA_OF_ASC_NODE":150.1474,"ARG_OF_PERICENTER":249.4947,"MEAN_ANOMALY":110.4917,"EPHEMERIS_TYPE":0,"CLASSIFICATION_TYPE":"U","NORAD_CAT_ID":28222,"ELEMENT_SET_NO":999,"REV_AT_EPOCH":20658,"BSTAR":0.00052091,"MEAN_MOTION_DOT":0.00054128,"MEAN_MOTION_DDOT":0},{"OBJECT_NAME":"SL-16 R/B","OBJECT_ID":"2004-021B","EPOCH":"2026-03-24T09:03:26.229024","MEAN_MOTION":14.14593458,"ECCENTRICITY":0.0004746,"INCLINATION":71.0003,"RA_OF_ASC_NODE":201.669,"ARG_OF_PERICENTER":351.8805,"MEAN_ANOMALY":8.224,"EPHEMERIS_TYPE":0,"CLASSIFICATION_TYPE":"U","NORAD_CAT_ID":28353,"ELEMENT_SET_NO":999,"REV_AT_EPOCH":12491,"BSTAR":3.4667e-5,"MEAN_MOTION_DOT":1.9e-7,"MEAN_MOTION_DDOT":0},{"OBJECT_NAME":"CZ-4B R/B","OBJECT_ID":"2004-035C","EPOCH":"2026-03-24T08:53:38.816160","MEAN_MOTION":15.29314222,"ECCENTRICITY":0.002999,"INCLINATION":97.3476,"RA_OF_ASC_NODE":117.438,"ARG_OF_PERICENTER":276.7126,"MEAN_ANOMALY":83.0701,"EPHEMERIS_TYPE":0,"CLASSIFICATION_TYPE":"U","NORAD_CAT_ID":28415,"ELEMENT_SET_NO":999,"REV_AT_EPOCH":18215,"BSTAR":0.00027313,"MEAN_MOTION_DOT":7.794e-5,"MEAN_MOTION_DDOT":0},{"OBJECT_NAME":"CZ-2C R/B","OBJECT_ID":"2004-046B","EPOCH":"2026-03-24T11:46:55.913088","MEAN_MOTION":14.26997125,"ECCENTRICITY":0.014051,"INCLINATION":98.1977,"RA_OF_ASC_NODE":357.5529,"ARG_OF_PERICENTER":110.9302,"MEAN_ANOMALY":250.6984,"EPHEMERIS_TYPE":0,"CLASSIFICATION_TYPE":"U","NORAD_CAT_ID":28480,"ELEMENT_SET_NO":999,"REV_AT_EPOCH":11061,"BSTAR":6.722e-5,"MEAN_MOTION_DOT":1.42e-6,"MEAN_MOTION_DDOT":0},{"OBJECT_NAME":"ARIANE 5 R/B","OBJECT_ID":"2004-049H","EPOCH":"2026-03-24T10:53:06.947232","MEAN_MOTION":14.85291202,"ECCENTRICITY":0.0083044,"INCLINATION":98.2649,"RA_OF_ASC_NODE":252.4656,"ARG_OF_PERICENTER":303.7,"MEAN_ANOMALY":55.6317,"EPHEMERIS_TYPE":0,"CLASSIFICATION_TYPE":"U","NORAD_CAT_ID":28499,"ELEMENT_SET_NO":999,"REV_AT_EPOCH":14798,"BSTAR":9.4026e-5,"MEAN_MOTION_DOT":7.93e-6,"MEAN_MOTION_DDOT":0},{"OBJECT_NAME":"CZ-2D R/B","OBJECT_ID":"2005-024B","EPOCH":"2026-03-24T12:27:31.425408","MEAN_MOTION":15.61482287,"ECCENTRICITY":0.0003169,"INCLINATION":97.3589,"RA_OF_ASC_NODE":99.2238,"ARG_OF_PERICENTER":0.8881,"MEAN_ANOMALY":359.2382,"EPHEMERIS_TYPE":0,"CLASSIFICATION_TYPE":"U","NORAD_CAT_ID":28738,"ELEMENT_SET_NO":999,"REV_AT_EPOCH":14209,"BSTAR":0.00050784,"MEAN_MOTION_DOT":0.00043463,"MEAN_MOTION_DDOT":0}]
